IRIDIUM 36              
1 24967U 97056C   24314.72745751  .00002124  00000+0  70743-3 0  9999
2 24967  86.3939 265.1418 0002427  80.7697 279.3775 14.37212959420691
IRIDIUM 39              
1 25042U 97069D   24314.86356376  .00003577  00000+0  94502-3 0  9996
2 25042  86.3877 305.1783 0016604 325.6513  34.3616 14.48596352417207
IRIDIUM 38              
1 25043U 97069E   24315.10497928  .00002083  00000+0  68677-3 0  9999
2 25043  86.3937 325.3568 0004142  93.3961 266.7710 14.37695686414739
IRIDIUM 42              
1 25077U 97077A   24314.77466254  .00002009  00000+0  68570-3 0  9995
2 25077  86.3951 331.3950 0002880  96.5762 263.5762 14.35963735409709
IRIDIUM 44              
1 25078U 97077B   24314.90253082  .00002665  00000+0  84366-3 0  9993
2 25078  86.3926 313.8449 0003612  63.5119 296.6450 14.39823110412143
IRIDIUM 45              
1 25104U 97082A   24315.11936736  .00039665  00000+0  18304-2 0  9995
2 25104  86.3633 153.3407 0143708  66.0740 295.5474 15.11230244419083
IRIDIUM 24              
1 25105U 97082B   24314.66950629  .00002173  00000+0  66081-3 0  9992
2 25105  86.3950 173.3319 0013519  83.4445 276.8294 14.41655145411583
IRIDIUM 51              
1 25262U 98018A   24314.55861001  .00076307  00000+0  27416-2 0  9997
2 25262  86.3936 162.9621 0122951   4.5684 355.6649 15.21418878413650
